NOAA 15                 
1 25338U 98030A   20193.99268664  .00000059  00000-0  43276-4 0  9996
2 25338  98.7152 218.9172 0010289 185.0055 175.1023 14.25978300152724
DMSP 5D-3 F15 (USA 147) 
1 25991U 99067A   20193.94393229 -.00000110  00000-0 -32180-4 0  9995
2 25991  98.9708 165.5004 0010635  35.9438 340.7246 14.16480187 63912
METEOSAT-8 (MSG-1)      
1 27509U 02040B   20193.95619303  .00000134  00000-0  00000-0 0  9998
2 27509   6.7663  54.0056 0002131  45.2019 216.6674  1.00272741 65536
DMSP 5D-3 F16 (USA 172) 
1 28054U 03048A   20193.92911083 -.00000109  00000-0 -33886-4 0  9996
2 28054  98.9128 172.9057 0007879 146.4001 240.0910 14.13652736863243
NOAA 18                 
1 28654U 05018A   20193.88433857  .00000070  00000-0  62414-4 0  9998
2 28654  99.0420 250.5398 0014772 158.6182 201.5610 14.12524329780457
METEOSAT-9 (MSG-2)      
1 28912U 05049B   20193.89030222  .00000015  00000-0  00000-0 0  9997
2 28912   4.4754  70.0613 0002392  16.1120 167.9152  1.00269461 53314
FORMOSAT-3 FM6          
1 29047U 06011A   20193.91191376  .00000103  00000-0  56606-4 0  9993
2 29047  71.9789  60.0729 0049991  18.0835 342.2064 14.28740140744812
FORMOSAT-3 FM1          
1 29048U 06011B   20193.79109982 -.00000061  00000-0 -75161-5 0  9995
2 29048  71.9658 331.1995 0044457 336.1736  23.7341 14.28704435747281
FORMOSAT-3 FM5          
1 29049U 06011C   20193.93079848  .00000024  00000-0  25850-4 0  9995
2 29049  72.0204 142.7006 0034985   1.3191 358.8031 14.28787942743098
FORMOSAT-3 FM3          
1 29050U 06011D   20193.96306506  .00000039  00000-0  18731-4 0  9990
2 29050  72.0163 286.2244 0051701 280.0953  79.4369 14.58926970759905
FORMOSAT-3 FM4          
1 29051U 06011E   20193.86016538  .00000017  00000-0  22528-4 0  9998
2 29051  72.0057  44.8534 0069578 243.2372 116.1635 14.28818575745677
FORMOSAT-3 FM2          
1 29052U 06011F   20193.85814641  .00000077  00000-0  46289-4 0  9995
2 29052  72.0349 119.1364 0041238 321.8273  37.9945 14.28924450743183
GOES 13                 
1 29155U 06018A   20193.99779130  .00000036  00000-0  00000-0 0  9996
2 29155   0.0998 239.6617 0006523 310.8819 160.6712  1.00268230 21648
METOP-A                 
1 29499U 06044A   20193.94391382 -.00000018  00000-0  10934-4 0  9992
2 29499  98.5202 239.8924 0001324 119.5190   6.3129 14.21501609712183
DMSP 5D-3 F17 (USA 191) 
1 29522U 06050A   20193.96850637 -.00000105  00000-0 -32283-4 0  9990
2 29522  98.8008 209.9997 0010926 105.7605 254.4774 14.14016492706202
FENGYUN 3A              
1 32958U 08026A   20193.82660576 -.00000006  00000-0  16683-4 0  9993
2 32958  98.4067 178.3030 0007481 266.4874  93.5447 14.18628888628284
FENGYUN 2E              
1 33463U 08066A   20194.05039847 -.00000202  00000-0  00000-0 0  9996
2 33463   4.3913  68.4862 0002970 304.2899  21.9736  1.00280363 42364
NOAA 19                 
1 33591U 09005A   20193.96074867  .00000054  00000-0  54847-4 0  9998
2 33591  99.1948 199.9457 0014159  11.6771 348.4725 14.12420656588858
GOES 14                 
1 35491U 09033A   20193.65345663 -.00000094  00000-0  00000+0 0  9993
2 35491   0.3785  97.9359 0009203 115.0128 207.9334  1.00271106 40438
METEOR-M 1              
1 35865U 09049A   20193.93003250  .00000005  00000-0  21179-4 0  9995
2 35865  98.4389 179.9319 0003438 109.1555 250.9996 14.22242759561407
DMSP 5D-3 F18 (USA 210) 
1 35951U 09057A   20193.88978880  .00000073  00000-0  61604-4 0  9996
2 35951  98.6450 182.9593 0009996 302.9693  57.0519 14.13282796553451
GOES 15                 
1 36411U 10008A   20193.72045385  .00000055  00000-0  00000+0 0  9992
2 36411   0.0653 255.2119 0002713 182.4620 343.4349  1.00268695 37942
COMS 1                  
1 36744U 10032A   20193.94146557 -.00000344  00000-0  00000-0 0  9998
2 36744   0.0267  76.5674 0000864  25.8965 294.9076  1.00272481 29361
FENGYUN 3B              
1 37214U 10059A   20194.22161093 -.00000022  00000-0  12362-4 0  9995
2 37214  99.0465 176.3406 0016573 194.3551 165.7155 14.15951795501181
SUOMI NPP               
1 37849U 11061A   20193.93253108 -.00000002  00000-0  20016-4 0  9992
2 37849  98.7371 131.5282 0001182 106.7106 322.4536 14.19538968451091
FENGYUN 2F              
1 38049U 12002A   20193.85674487 -.00000359  00000-0  00000-0 0  9991
2 38049   2.1194  83.4428 0002016  72.8612 194.4982  1.00269538 31169
METEOSAT-10 (MSG-3)     
1 38552U 12035B   20193.94095696  .00000063  00000-0  00000-0 0  9996
2 38552   1.0052  17.5199 0000544  58.9134 202.0781  1.00280040 29161
METOP-B                 
1 38771U 12049A   20193.93498542 -.00000016  00000-0  12786-4 0  9997
2 38771  98.6899 252.8666 0000436  38.9153 133.6918 14.21499910405509
FENGYUN 3C              
1 39260U 13052A   20193.86592179 -.00000029  00000-0  67175-5 0  9996
2 39260  98.5483 243.2560 0011906 141.4114 218.7914 14.15841327352079
METEOR-M 2              
1 40069U 14037A   20194.19353664 -.00000012  00000-0  13952-4 0  9995
2 40069  98.5004 230.7925 0005120 200.1322 159.9654 14.20673901311729
HIMAWARI-8              
1 40267U 14060A   20193.86046094 -.00000276  00000-0  00000-0 0  9998
2 40267   0.0338 102.0037 0000892  57.4558 221.1788  1.00271898 21032
FENGYUN 2G              
1 40367U 14090A   20190.65793766 -.00000307  00000-0  00000+0 0  9995
2 40367   2.1337  94.3304 0002274   0.3621 168.3254  1.00259733 20289
METEOSAT-11 (MSG-4)     
1 40732U 15034A   20193.88960432 -.00000002  00000-0  00000-0 0  9997
2 40732   0.7820 273.3402 0003217 218.9644 118.2494  1.00270581 18319
ELEKTRO-L 2             
1 41105U 15074A   20194.19187876 -.00000097  00000-0  00000-0 0  9998
2 41105   1.2587  96.8854 0001605  46.7024 292.0382  1.00272629 16799
HIMAWARI-9              
1 41836U 16064A   20193.86046094 -.00000275  00000-0  00000-0 0  9996
2 41836   0.0222 292.7262 0000792 208.1470 239.8556  1.00273778 13467
GOES 16                 
1 41866U 16071A   20193.87459976 -.00000248  00000-0  00000-0 0  9995
2 41866   0.0425 194.7750 0000781 315.6104  19.4882  1.00273583 13394
FENGYUN 4A              
1 41882U 16077A   20194.26936694 -.00000329  00000-0  00000-0 0  9990
2 41882   0.0195   8.5893 0004999 135.5643 348.1012  1.00268583 13265
CYGFM05                 
1 41884U 16078A   20193.60862179  .00000178  00000-0  11095-4 0  9997
2 41884  34.9561 269.9130 0016456 262.3370  97.5472 15.14642989197774
CYGFM04                 
1 41885U 16078B   20193.90021806  .00000185  00000-0  11347-4 0  9993
2 41885  34.9491 261.1652 0014838 274.7960  85.1057 15.15153716197884
CYGFM02                 
1 41886U 16078C   20193.89304699  .00000170  00000-0  10532-4 0  9995
2 41886  34.9583 262.9581 0015577 270.8291  89.0635 15.15154626197877
CYGFM01                 
1 41887U 16078D   20193.90985858  .00000160  00000-0  10212-4 0  9994
2 41887  34.9528 269.2159 0016909 265.5085  94.3695 15.14455734197801
CYGFM08                 
1 41888U 16078E   20193.89492705  .00000164  00000-0  10321-4 0  9992
2 41888  34.9498 264.9891 0016087 272.0717  87.8152 15.14871221197836
CYGFM06                 
1 41889U 16078F   20193.87205292  .00000152  00000-0  96163-5 0  9990
2 41889  34.9577 261.7790 0014528 270.6574  89.2473 15.15148504197879
CYGFM07                 
1 41890U 16078G   20193.58690075  .00000179  00000-0  11016-4 0  9999
2 41890  34.9515 262.6335 0014304 271.3598  88.5475 15.15147146197835
CYGFM03                 
1 41891U 16078H   20193.91184624  .00000177  00000-0  10935-4 0  9992
2 41891  34.9547 260.8661 0013776 272.9149  86.9986 15.15142898197887
FENGYUN 3D              
1 43010U 17072A   20194.38632863 -.00000033  00000-0  51881-5 0  9995
2 43010  98.7522 133.4341 0002038  37.2944 322.8378 14.19744864137736
NOAA 20                 
1 43013U 17073A   20193.88404163 -.00000011  00000-0  15475-4 0  9997
2 43013  98.7183 131.4534 0000775  79.9493 280.1771 14.19557337137125
GOES 17                 
1 43226U 18022A   20193.79024260  .00000097  00000-0  00000-0 0  9991
2 43226   0.0554 241.1188 0000399 248.1413 308.1612  1.00272747  8685
FENGYUN 2H              
1 43491U 18050A   20192.98105071 -.00000130  00000-0  00000-0 0  9995
2 43491   0.6027 273.2334 0003629 221.6274 226.8885  1.00268753  7789
METOP-C                 
1 43689U 18087A   20193.86821312 -.00000027  00000-0  77488-5 0  9999
2 43689  98.6962 253.1051 0000909 272.5961  87.5112 14.21493597 87069
GEO-KOMPSAT-2A          
1 43823U 18100A   20193.94146557 -.00000344  00000-0  00000-0 0  9998
2 43823   0.0421 198.7899 0002192 261.9195 296.7548  1.00273026  5947
IOD-1 GEMS              
1 44385U 98067QK  20193.76832984  .00009702  00000-0  12039-3 0  9992
2 44385  51.6384 210.1406 0003088  50.8394 309.2874 15.60745258 58284
METEOR-M2 2             
1 44387U 19038A   20193.89468147 -.00000022  00000-0  93836-5 0  9998
2 44387  98.6209 153.4541 0001994 126.9098 233.2263 14.23679840 53017
